#aV2021  6 23  0  0  0.00000000     288 DD+AD WGS84 FIT  NGA
## 2163 259200.00000000   300.00000000 59388 0.0000000000000
+   31     1  2  3  4  5  6  7  8  9 10 12 13 14 15 16 17 18
+         19 20 21 22 23 24 25 26 27 28 29 30 31 32  0  0  0
+          0  0  0  0  0  0  0  0  0  0  0  0  0  0  0  0  0
+          0  0  0  0  0  0  0  0  0  0  0  0  0  0  0  0  0
+          0  0  0  0  0  0  0  0  0  0  0  0  0  0  0  0  0
++         2  2  2  2  2  2  2  2  2  2  2  2  2  2  2  2  2
++         2  2  2  2  2  2  2  2  2  2  2  2  2  2  0  0  0
++         0  0  0  0  0  0  0  0  0  0  0  0  0  0  0  0  0
++         0  0  0  0  0  0  0  0  0  0  0  0  0  0  0  0  0
++         0  0  0  0  0  0  0  0  0  0  0  0  0  0  0  0  0
%c cc cc ccc ccc cccc cccc cccc cccc ccccc ccccc ccccc ccccc
%c cc cc ccc ccc cccc cccc cccc cccc ccccc ccccc ccccc ccccc
%f  0.0000000  0.000000000  0.00000000000  0.000000000000000
%f  0.0000000  0.000000000  0.00000000000  0.000000000000000
%i    0    0    0    0      0      0      0      0         0
%i    0    0    0    0      0      0      0      0         0
/*      NGA, ST. LOUIS,MO.                                  
/*   EPHEMERIS COMPUTED FROM 2 DAYS OF DATA                 
/*   EPOCHA v6 SMOOTHER                                     
/*   G2139 IERS2010 SATIGS SATAPC                           
*  2021  6 23 17 35  0.00000000
P  1  21096.218986  12516.238918  10346.008573    649.451472                    
V  1   7952.235262  10892.462759 -28319.311964     -0.116905                    
P  2 -10989.720632 -21265.741315  12095.403224   -614.569334                    
V  2  12113.167642   8030.023512  26624.613071     -0.028446                    
P  3  14103.725935   5082.280541  21837.575224   -200.288719                    
V  3  -7892.935857  26771.737738  -1018.119584     -0.108537                    
P  4  24553.845298   2051.365489  10005.604006   -200.695133                    
V  4 -11905.406852   5006.241701  28152.565666     -0.010442                    
P  5  -8190.094737 -18187.786750 -17609.536948    -45.821730                    
V  5   7170.724711 -21008.890377  18707.679386     -0.011334                    
P  6   -457.819646 -18705.518092  18883.952401     30.643884                    
V  6  17204.433074  16513.651565  16879.224909      0.048954                    
P  7  18016.018484   -908.685584 -19295.265074    185.613937                    
V  7  16347.682425  19153.339868  13611.686854      0.095095                    
P  8  18128.809815   7977.105717 -17853.599871    -26.203443                    
V  8 -21437.984601   7013.611197 -18347.517566     -0.014900                    
P  9  25582.486230  -7168.020372   -643.895666   -352.510543                    
V  9   1494.566950   2759.595265  31549.941650     -0.017761                    
P 10 -11689.485993  22529.873111  -7215.154077   -148.192411                    
V 10     86.149355  -9739.474639 -30328.840983     -0.075982                    
P 12 -13066.835437  -7230.323229  21720.464006    -59.025325                    
V 12   9959.800800 -26315.320285  -2604.486285     -0.052421                    
P 13  -9778.698338 -13423.299780 -20891.549548    148.652988                    
V 13  25943.554422  -3502.617061  -9819.788081      0.048951                    
P 14  12833.447560 -22123.435860  -7101.346049     63.134342                    
V 14   -257.608033   9443.464597 -29953.300440     -0.080046                    
P 15 -19274.312327  -6802.515608 -17505.485264   -140.360469                    
V 15  19479.691061  -9284.769119 -17874.032618      0.026283                    
P 16   2018.998760  22012.228603 -14625.128217   -345.961386                    
V 16  -8597.327994  16286.452383  24168.593088     -0.060781                    
P 17  18156.524992 -13199.343798  14625.600815    463.051457                    
V 17  17778.097161  -1679.614340 -24294.586738      0.058582                    
P 18 -15741.841224   4182.562935 -21006.777731    345.238180                    
V 18 -17431.693671 -20110.000939   8992.193229     -0.020533                    
P 19  10026.737075 -14536.628101  19510.400902     17.223523                    
V 19  25314.000123  -2244.449125 -14597.091964      0.049805                    
P 20  -7246.694255 -21591.939429 -13883.531623    520.876166                    
V 20   4891.126019 -17051.828195  23709.198861     -0.003794                    
P 21  21417.249177  15892.505804   3646.941098    126.922023                    
V 21   1139.540818   4272.058300 -30921.833450      0.024362                    
P 22  11723.235965  14418.648299  19234.172038   -581.065012                    
V 22  -5866.448561  23373.247216 -13882.031012      0.096078                    
P 23 -15506.261954  13848.370887 -16518.707806     93.444543                    
V 23   3634.851285 -20707.154566 -20851.386574     -0.045128                    
P 24 -21737.850474 -14683.967920   5099.907434    145.640645                    
V 24  -2807.616762  -6925.159664 -30021.758341      0.169073                    
P 25 -16190.206103   6226.909250  19772.250874    161.163022                    
V 25   5915.605235 -25113.471995  12847.562164      0.068152                    
P 26  -3196.566846  25890.273893  -4193.400563    102.063531                    
V 26  -4739.505212   4307.937730  30899.198374      0.047410                    
P 27   7244.041954  13505.026355 -21906.877986   -151.896802                    
V 27 -26489.821709   6614.918155  -4363.109334     -0.061367                    
P 28   9998.724390 -24704.834958   -232.109121    549.717226                    
V 28   1775.980299   1732.075426 -31896.384930     -0.063944                    
P 29 -26246.480430   4253.319377    197.757329   -368.956431                    
V 29    -30.215582  -2072.080796  32214.219582     -0.062654                    
P 30   8833.817971 -13355.046618 -21099.758424   -442.549044                    
V 30  18679.803145  19600.107352  -4807.006249     -0.046081                    
P 31   1934.390682  20020.949225  17014.667567   -124.729664                    
V 31 -16346.652595 -14836.006111  19677.942192     -0.021619                    
P 32 -15073.567354  15204.214085  15721.736973     17.341824                    
V 32 -19752.948666   2779.779865 -21953.932974     -0.015628                    
EOF
